GLOBALSTAR M045         
1 25676U 99019A   25169.31284830 -.00000069  00000+0  21773-3 0  9994
2 25676  51.9984 302.0617 0000848 148.1548 223.7266 12.27062724193772
GLOBALSTAR M019         
1 25677U 99019B   25169.10737969 -.00000215  00000+0 -13048-2 0  9997
2 25677  51.9887  73.0754 0001454 350.6020 149.7066 12.13875214185442
GLOBALSTAR M044         
1 25678U 99019C   25169.38215619 -.00000028  00000+0  77561-3 0  9993
2 25678  51.9989  23.8240 0006843  46.6618 124.6313 11.90253132171446
GLOBALSTAR M042         
1 25679U 99019D   25168.95212198 -.00000066  00000+0  24675-3 0  9995
2 25679  52.0030  48.7943 0002611 315.4665  58.4582 12.22083655185354
GLOBALSTAR M025         
1 25770U 99031A   25169.27310359 -.00000057  00000+0  31563-3 0  9999
2 25770  51.9777 156.7553 0001402 160.6559 212.7252 11.22558665139498
GLOBALSTAR M049         
1 25771U 99031B   25169.33763145 -.00000055  00000+0  34687-3 0  9990
2 25771  51.9831 191.4288 0002644   1.6355 358.4450 11.12115326117551
GLOBALSTAR M047         
1 25772U 99031C   25169.20900157 -.00000068  00000+0  29769-4 0  9993
2 25772  51.9792 188.5918 0016822 264.5349  95.3538 11.31928840145998
GLOBALSTAR M052         
1 25773U 99031D   25169.28991626 -.00000084  00000+0 -62155-3 0  9997
2 25773  51.9884 300.1955 0003137 166.8580 199.6091 11.15059730136469
